[
    {
        "Altitude(m)": 607895.7810646321,
        "Argument of Periapsis(deg)": 0.0,
        "Eccentricity": 0.0,
        "Inclination(deg)": 60.0,
        "Latitude(deg)": 40.99824121367402,
        "Longitude(deg)": -74.91136414657898,
        "Mean Anomaly(deg)": -229.09089999999998,
        "RAAN(deg)": 235.0,
        "Satellite Name": "Test1 1042",
        "Satellite Number": 1042,
        "Semi-Major Axis(m)": 6980739.136638005,
        "Time(s)": 0
    },
    {
        "Altitude(m)": 607795.0940345915,
        "Argument of Periapsis(deg)": 0.00010418945913296404,
        "Eccentricity": 0.0,
        "Inclination(deg)": 60.0,
        "Latitude(deg)": 40.53056556420315,
        "Longitude(deg)": -74.41477087585714,
        "Mean Anomaly(deg)": -228.47079385453813,
        "RAAN(deg)": 234.99957995086027,
        "Satellite Name": "Test1 1042",
        "Satellite Number": 1042,
        "Semi-Major Axis(m)": 6980739.136638005,
        "Time(s)": 10
    }
]